ESTCUBE 1               
1 39161U 13021C   21169.16363120  .00000205  00000-0  39931-4 0  9994
2 39161  97.9375 250.3372 0010181 143.0626 217.1285 14.72487463435854
FENGYUN 3C              
1 39260U 13052A   21178.09929416 -.00000046  00000-0 -23834-5 0  9997
2 39260  98.4965 218.3691 0010529 212.1991 147.8555 14.15870395401637
CASSIOPE                
1 39265U 13055A   21177.79642499  .00001854  00000-0  51893-4 0  9995
2 39265  80.9674 282.2632 0647672 286.4277  66.6697 14.32304850401335
ZACUBE-1 (TSHEPISOSAT)  
1 39417U 13066B   21177.70305700  .00000253  00000-0  37713-4 0  9995
2 39417  97.5929 161.5511 0059776 129.7877 230.8622 14.81527888410440
CINEMA-3 (KHUSAT-2)     
1 39426U 13066L   21178.13321861  .00000152  00000-0  31808-4 0  9996
2 39426  97.7561 129.5950 0102739 294.6172  64.4359 14.69689707407341
TRITON-1                
1 39427U 13066M   21177.78901877  .00000273  00000-0  51460-4 0  9998
2 39427  97.7755 125.1151 0112433 321.9068  37.4227 14.68251697406583
DELFI-N3XT              
1 39428U 13066N   21178.09775096  .00000507  00000-0  87868-4 0  9997
2 39428  97.7800 123.8791 0119206 333.9454  25.5781 14.68024601406561
GOMX-1                  
1 39430U 13066Q   21178.06134999  .00000204  00000-0  45221-4 0  9999
2 39430  97.8137 100.5802 0151948  84.6006 277.2518 14.59621361404440
BRITE-PL1 (LEM)         
1 39431U 13066R   21177.65053739  .00000063  00000-0  24300-4 0  9994
2 39431  97.7504  57.0146 0200690 250.1481 107.7985 14.47147346401109
ICUBE-1                 
1 39432U 13066S   21177.82128190  .00000364  00000-0  41949-4 0  9990
2 39432  97.4737 195.3613 0032138  14.7310 345.4838 14.90901220411707
HUMSAT-D                
1 39433U 13066T   21178.03354148  .00000544  00000-0  57191-4 0  9995
2 39433  97.4689 202.5144 0030085 353.1914   6.8893 14.92921567413353
VELOX-PII               
1 39438U 13066Y   21177.91134336  .00000164  00000-0  28565-4 0  9992
2 39438  97.6427 152.3771 0070381 173.1989 187.0195 14.78231306408476
FIRST-MOVE              
1 39439U 13066Z   21177.93229101  .00000632  00000-0  81909-4 0  9991
2 39439  97.5980 163.2479 0065918 126.9052 233.8228 14.82626893410444
CUBEBUG-2 (LO-74)       
1 39440U 13066AA  21177.87360974  .00000217  00000-0  36960-4 0  9996
2 39440  97.6765 146.7540 0079044 204.0087 155.7431 14.76256337407814
NEE-02 KRYSAOR          
1 39441U 13066AB  21177.87436805  .00000128  00000-0  25354-4 0  9990
2 39441  97.6863 144.0928 0080464 215.2670 144.3201 14.75192526407609
FUNCUBE-1 (AO-73)       
1 39444U 13066AE  21177.95155289  .00000375  00000-0  51658-4 0  9996
2 39444  97.5833 164.1528 0059004 119.4726 241.2392 14.82438512409437
HINCUBE                 
1 39445U 13066AF  21177.89309172  .00000366  00000-0  50813-4 0  9994
2 39445  97.5849 163.9459 0059027 121.4512 239.2491 14.82269375408789
UWE-3                   
1 39446U 13066AG  21177.89786742  .00000233  00000-0  37178-4 0  9999
2 39446  97.6370 153.6986 0069896 167.2485 193.0516 14.78794664408495
AIST-1 (RS-41)          
1 39492U 13078C   21178.10211183  .00000213  00000-0  20446-4 0  9998
2 39492  82.4190 216.4822 0019224 199.4289 160.6203 14.88040088406939
SPROUT                  
1 39770U 14029E   21173.58578926  .00000919  00000-0  10505-3 0  9999
2 39770  97.9185 284.8553 0008834 181.6277 178.4913 14.88449946384103
UNISAT-6                
1 40012U 14033C   21177.79850291  .00000249  00000-0  44066-4 0  9996
2 40012  97.6754  19.7286 0056876 229.1902 130.4367 14.74325205377573
BUGSAT-1 (TITA)         
1 40014U 14033E   21177.92216468  .00000170  00000-0  20840-4 0  9992
2 40014  98.1122 157.7844 0031974 131.4444 228.9530 14.95764427382983
DUCHIFAT-1              
1 40021U 14033M   21177.79390793  .00000578  00000-0  63774-4 0  9994
2 40021  97.9729 118.0852 0013804 128.8898 231.3553 14.91360135381677
NANOSATC-BR1            
1 40024U 14033Q   21178.10085019  .00000557  00000-0  62992-4 0  9993
2 40024  97.9517 113.4079 0013076 132.9550 227.2767 14.90456669381552
QB50P1                  
1 40025U 14033R   21178.09310934  .00000418  00000-0  49850-4 0  9993
2 40025  97.9333 108.8052 0013149 141.2488 218.9675 14.89456813381365
DTUSAT-2                
1 40030U 14033W   21177.76268559  .00000315  00000-0  39442-4 0  9999
2 40030  97.9162 105.0068 0012690 138.6594 221.5586 14.89005820380701
QB50P2                  
1 40032U 14033Y   21177.79335596  .00000326  00000-0  40621-4 0  9993
2 40032  97.9170 105.0443 0012617 139.2653 220.9509 14.88963709380684
POLYITAN-1              
1 40042U 14033AJ  21177.81019208  .00000457  00000-0  54157-4 0  9990
2 40042  97.9427 109.3365 0015499 134.4886 225.7600 14.89266985380707
TIGRISAT                
1 40043U 14033AK  21177.82101728  .00000190  00000-0  35126-4 0  9990
2 40043  97.6721  21.1398 0058579 226.9877 132.6416 14.74544432377215
AISAT                   
1 40054U 14034B   21177.68053914  .00000437  00000-0  67646-4 0  9996
2 40054  98.3238 331.0770 0013020  20.4135 339.7593 14.78446279376894
CANX-4                  
1 40055U 14034C   21177.91645164  .00000091  00000-0  21537-4 0  9992
2 40055  98.3076 319.4406 0015231  53.3319 306.9287 14.75059777376331
CANX-5                  
1 40056U 14034D   21177.85347811  .00000101  00000-0  23069-4 0  9998
2 40056  98.3076 319.3618 0015269  53.7369 306.5247 14.75051884367104
VELOX-I                 
1 40057U 14034E   21178.07823105  .00000306  00000-0  49958-4 0  9991
2 40057  98.3288 332.5369 0011476  33.5177 326.6751 14.78192466376961
METEOR-M 2              
1 40069U 14037A   21178.15438033 -.00000039  00000-0  14483-5 0  9998
2 40069  98.4585 206.6344 0004463 280.0614  80.0060 14.20684787361419
DX1                     
1 40071U 14037C   21178.10937769  .00000132  00000-0  24404-4 0  9992
2 40071  98.4517  23.2712 0009038  24.6508 335.5136 14.81506831376728
UKUBE-1                 
1 40074U 14037F   21178.08476352  .00000218  00000-0  32937-4 0  9993
2 40074  98.4294  34.3951 0004704  10.7495 349.3821 14.84566714377338
FIREBIRD 3              
1 40377U 15003B   21177.88533800  .00005516  00000-0  20006-3 0  9991
2 40377  99.1014 321.0910 0118125 140.9739 220.0090 15.22515499354226
FIREBIRD 4              
1 40378U 15003C   21177.92714940  .00005275  00000-0  19114-3 0  9993
2 40378  99.1019 321.2839 0118204 140.6577 220.3316 15.22567887354243
GRIFEX                  
1 40379U 15003D   21178.09209764  .00003353  00000-0  13687-3 0  9990
2 40379  99.0974 310.7214 0128480 172.7243 187.5891 15.18113722353652
CP10 (EXOCUBE)          
1 40380U 15003E   21178.10372357  .00003106  00000-0  13427-3 0  9991
2 40380  99.0983 305.1254 0133808 191.7318 168.0783 15.15769318353288
DEORBITSAIL             
1 40719U 15032E   21178.09110941  .00000492  00000-0  76063-4 0  9997
2 40719  97.8272  62.6290 0017821  76.8495 283.4702 14.77386930321405
NUDT-PHONESAT           
1 40900U 15049B   21178.00904656  .00003565  00000-0  13900-3 0  9996
2 40900  97.4180 192.0585 0013684 103.4683 308.5331 15.26522327320284
XW-2A                   
1 40903U 15049E   21178.13977563  .00003223  00000-0  69182-4 0  9995
2 40903  97.2348 232.5915 0011616 348.3961  63.7162 15.45395032324299
XW-2C                   
1 40906U 15049H   21178.05722069  .00001019  00000-0  55200-4 0  9995
2 40906  97.4844 180.2890 0015433 148.5241 283.7876 15.16769354319029
XW-2D                   
1 40907U 15049J   21178.04958029  .00001056  00000-0  56579-4 0  9993
2 40907  97.4842 180.0792 0014822 144.8018 288.1322 15.17093163319056
LILACSAT-2              
1 40908U 15049K   21178.05909831  .00000720  00000-0  42634-4 0  9996
2 40908  97.5034 177.9190 0016335 160.8891 270.6655 15.14457563318684
XW-2E                   
1 40909U 15049L   21177.98414148  .00001543  00000-0  75612-4 0  9996
2 40909  97.4650 184.0367 0014469 131.9769 279.9941 15.19579903319388
XW-2F                   
1 40910U 15049M   21177.99074249  .00001641  00000-0  81298-4 0  9999
2 40910  97.4709 183.1219 0015589 132.3805 280.3256 15.19081279319177
XW-2B                   
1 40911U 15049N   21178.05298513  .00001073  00000-0  57605-4 0  9994
2 40911  97.4838 180.7628 0014711 145.8391 287.5869 15.17009866318946
KAITUO 1B               
1 40912U 15049P   21178.10165693  .00001692  00000-0  77813-4 0  9993
2 40912  97.4435 187.6033 0016047 106.4803 295.0176 15.21624696319665
TIANWANG 1A (TW-1A)     
1 40928U 15051D   21178.04056241  .00005047  00000-0  10523-3 0  9996
2 40928  97.0754 202.7122 0007365 254.6714 157.3196 15.45985333323177
LAPAN-A2                
1 40931U 15052B   21177.66144456  .00000789  00000-0  20673-4 0  9990
2 40931   5.9957 186.6889 0013097 178.0137 182.0255 14.76679533310667
LQSAT                   
1 40958U 15057A   21178.46089199  .00000032  00000-0  12474-4 0  9996
2 40958  97.8012 234.4930 0018851  28.4563 331.7701 14.73180731307716
ATHENOXAT 1             
1 41168U 15077C   21178.20454497  .00002345  00000-0  83489-4 0  9994
2 41168  14.9882 189.3219 0010789 311.2263 124.5369 15.15748037306268
GALASSIA                
1 41170U 15077E   21177.64696933  .00002303  00000-0  80689-4 0  9990
2 41170  14.9876 184.1010 0012090 331.3465  28.6191 15.15952505306095
VELOX-II                
1 41171U 15077F   21177.80161859  .00001749  00000-0  59604-4 0  9999
2 41171  14.9907 240.9103 0008457 203.6286 156.3647 15.12584261305674
CHUBUSAT-2              
1 41338U 16012B   21178.11299927  .00000385  00000-0  22977-4 0  9995
2 41338  31.0025 124.4773 0013746 229.2651 130.6791 15.00540289294059
CHUBUSAT-3              
1 41339U 16012C   21178.13507937  .00000349  00000-0  20098-4 0  9993
2 41339  31.0108 121.5546 0013758 238.1714 121.7616 15.00686572294053
HORYU-4                 
1 41340U 16012D   21178.12264861  .00000619  00000-0  39586-4 0  9992
2 41340  31.0052 105.0860 0013860 268.3938  91.5110 15.01908308294245
